{
  "type": "FeatureCollection",
  "features": [
    {
      "type": "Feature",
      "properties": {
        "id": "u-c5",
        "name": "U-C5 The Last Frontier",
        "kind": "grid-cell",
        "overlayId": "u-c5-last-frontier",
        "docSlug": "world/regions/u-c5"
      },
      "geometry": {
        "type": "Polygon",
        "coordinates": [
          [
            [
              0,
              2855
            ],
            [
              4191,
              2855
            ],
            [
              4191,
              5710
            ],
            [
              0,
              5710
            ],
            [
              0,
              2855
            ]
          ]
        ]
      }
    },
    {
      "type": "Feature",
      "properties": {
        "id": "u-c6",
        "name": "U-C6 Misty Sea",
        "kind": "grid-cell",
        "overlayId": "u-c6-misty-sea",
        "docSlug": "world/regions/u-c6"
      },
      "geometry": {
        "type": "Polygon",
        "coordinates": [
          [
            [
              0,
              0
            ],
            [
              4191,
              0
            ],
            [
              4191,
              2855
            ],
            [
              0,
              2855
            ],
            [
              0,
              0
            ]
          ]
        ]
      }
    },
    {
      "type": "Feature",
      "properties": {
        "id": "u-d4",
        "name": "U-D4 Forgotten North",
        "kind": "grid-cell",
        "overlayId": "u-d4-forgotten-north",
        "docSlug": "world/regions/u-d4"
      },
      "geometry": {
        "type": "Polygon",
        "coordinates": [
          [
            [
              4191,
              5710
            ],
            [
              8382,
              5710
            ],
            [
              8382,
              8565
            ],
            [
              4191,
              8565
            ],
            [
              4191,
              5710
            ]
          ]
        ]
      }
    },
    {
      "type": "Feature",
      "properties": {
        "id": "u-d5",
        "name": "U-D5 Tablelands",
        "kind": "grid-cell",
        "overlayId": "u-d5-tablelands",
        "docSlug": "world/regions/u-d5"
      },
      "geometry": {
        "type": "Polygon",
        "coordinates": [
          [
            [
              4191,
              2855
            ],
            [
              8382,
              2855
            ],
            [
              8382,
              5710
            ],
            [
              4191,
              5710
            ],
            [
              4191,
              2855
            ]
          ]
        ]
      }
    },
    {
      "type": "Feature",
      "properties": {
        "id": "u-d6",
        "name": "U-D6 Dead Lands",
        "kind": "grid-cell",
        "overlayId": "u-d6-dead-lands",
        "docSlug": "world/regions/u-d6"
      },
      "geometry": {
        "type": "Polygon",
        "coordinates": [
          [
            [
              4191,
              0
            ],
            [
              8382,
              0
            ],
            [
              8382,
              2855
            ],
            [
              4191,
              2855
            ],
            [
              4191,
              0
            ]
          ]
        ]
      }
    },
    {
      "type": "Feature",
      "properties": {
        "id": "u-e4",
        "name": "U-E4 Northern Anattan Coast",
        "kind": "grid-cell",
        "overlayId": "u-e4-northern-anattan",
        "docSlug": "world/regions/u-e4"
      },
      "geometry": {
        "type": "Polygon",
        "coordinates": [
          [
            [
              8382,
              5710
            ],
            [
              12573,
              5710
            ],
            [
              12573,
              8565
            ],
            [
              8382,
              8565
            ],
            [
              8382,
              5710
            ]
          ]
        ]
      }
    },
    {
      "type": "Feature",
      "properties": {
        "id": "u-e5",
        "name": "U-E5 Anattan Coast",
        "kind": "grid-cell",
        "overlayId": "u-e5-anattan-coast",
        "docSlug": "world/regions/u-e5"
      },
      "geometry": {
        "type": "Polygon",
        "coordinates": [
          [
            [
              8382,
              2855
            ],
            [
              12573,
              2855
            ],
            [
              12573,
              5710
            ],
            [
              8382,
              5710
            ],
            [
              8382,
              2855
            ]
          ]
        ]
      }
    }
  ]
}
